CTC1_L_00409001-01
1 23628U 26826GA  26037.47805556  .00000000  00000+0  00000-0 0  9992
2 23628  45.0000   0.0000 0000000   0.0000   0.0000 12.77881336    19
CTC1_L_00409001-02
1 23629U 26343MN  26037.47805556  .00000000  00000+0  00000-0 0  9997
2 23629  45.0000   0.0000 0000000   0.0000  90.0000 12.77881336    19
CTC1_L_00409001-03
1 23630U 24496CS  26037.47805556  .00000000  00000+0  00000-0 0  9996
2 23630  45.0000   0.0000 0000000   0.0000 180.0000 12.77881336    11
CTC1_L_00409001-04
1 23631U 25299KS  26037.47805556  .00000000  00000+0  00000-0 0  9999
2 23631  45.0000   0.0000 0000000   0.0000 270.0000 12.77881336    12
CTC1_L_00409002-01
1 23632U 25807PI  26037.47805556  .00000000  00000+0  00000-0 0  9995
2 23632  45.0000  12.0000 0000000   0.0000  12.0000 12.77881336    10
CTC1_L_00409002-02
1 23633U 22392TG  26037.47805556  .00000000  00000+0  00000-0 0  9992
2 23633  45.0000  12.0000 0000000   0.0000 102.0000 12.77881336    11
CTC1_L_00409002-03
1 23634U 26914TW  26037.47805556  .00000000  00000+0  00000-0 0  9997
2 23634  45.0000  12.0000 0000000   0.0000 192.0000 12.77881336    11
CTC1_L_00409002-04
1 23635U 22881ZD  26037.47805556  .00000000  00000+0  00000-0 0  9997
2 23635  45.0000  12.0000 0000000   0.0000 282.0000 12.77881336    12
CTC1_L_00409003-01
1 23636U 22477RG  26037.47805556  .00000000  00000+0  00000-0 0  9999
2 23636  45.0000  24.0000 0000000   0.0000  24.0000 12.77881336    10
CTC1_L_00409003-02
1 23637U 25010WY  26037.47805556  .00000000  00000+0  00000-0 0  9996
2 23637  45.0000  24.0000 0000000   0.0000 114.0000 12.77881336    11
CTC1_L_00409003-03
1 23638U 22995UE  26037.47805556  .00000000  00000+0  00000-0 0  9996
2 23638  45.0000  24.0000 0000000   0.0000 204.0000 12.77881336    12
CTC1_L_00409003-04
1 23639U 23890GG  26037.47805556  .00000000  00000+0  00000-0 0  9992
2 23639  45.0000  24.0000 0000000   0.0000 294.0000 12.77881336    12
CTC1_L_00409004-01
1 23640U 22432KF  26037.47805556  .00000000  00000+0  00000-0 0  9995
2 23640  45.0000  36.0000 0000000   0.0000  36.0000 12.77881336    11
CTC1_L_00409004-02
1 23641U 24231YX  26037.47805556  .00000000  00000+0  00000-0 0  9995
2 23641  45.0000  36.0000 0000000   0.0000 126.0000 12.77881336    12
CTC1_L_00409004-03
1 23642U 23593ZJ  26037.47805556  .00000000  00000+0  00000-0 0  9996
2 23642  45.0000  36.0000 0000000   0.0000 216.0000 12.77881336    13
CTC1_L_00409004-04
1 23643U 22248L   26037.47805556  .00000000  00000+0  00000-0 0  9993
2 23643  45.0000  36.0000 0000000   0.0000 306.0000 12.77881336    14
CTC1_L_00409005-01
1 23644U 23749VW  26037.47805556  .00000000  00000+0  00000-0 0  9991
2 23644  45.0000  48.0000 0000000   0.0000  48.0000 12.77881336    11
CTC1_L_00409005-02
1 23645U 22436FI  26037.47805556  .00000000  00000+0  00000-0 0  9994
2 23645  45.0000  48.0000 0000000   0.0000 138.0000 12.77881336    12
CTC1_L_00409005-03
1 23646U 25263AL  26037.47805556  .00000000  00000+0  00000-0 0  9996
2 23646  45.0000  48.0000 0000000   0.0000 228.0000 12.77881336    13
CTC1_L_00409005-04
1 23647U 25866GV  26037.47805556  .00000000  00000+0  00000-0 0  9996
2 23647  45.0000  48.0000 0000000   0.0000 318.0000 12.77881336    14
CTC1_L_00409006-01
1 23648U 25389PC  26037.47805556  .00000000  00000+0  00000-0 0  9997
2 23648  45.0000  60.0000 0000000   0.0000  60.0000 12.77881336    13
CTC1_L_00409006-02
1 23649U 22293FK  26037.47805556  .00000000  00000+0  00000-0 0  9999
2 23649  45.0000  60.0000 0000000   0.0000 150.0000 12.77881336    14
CTC1_L_00409006-03
1 23650U 24826QM  26037.47805556  .00000000  00000+0  00000-0 0  9995
2 23650  45.0000  60.0000 0000000   0.0000 240.0000 12.77881336    16
CTC1_L_00409006-04
1 23651U 23126KG  26037.47805556  .00000000  00000+0  00000-0 0  9998
2 23651  45.0000  60.0000 0000000   0.0000 330.0000 12.77881336    17
CTC1_L_00409007-01
1 23652U 23979PV  26037.47805556  .00000000  00000+0  00000-0 0  9995
2 23652  45.0000  72.0000 0000000   0.0000  72.0000 12.77881336    14
CTC1_L_00409007-02
1 23653U 22263GM  26037.47805556  .00000000  00000+0  00000-0 0  9991
2 23653  45.0000  72.0000 0000000   0.0000 162.0000 12.77881336    15
CTC1_L_00409007-03
1 23654U 25685KB  26037.47805556  .00000000  00000+0  00000-0 0  9993
2 23654  45.0000  72.0000 0000000   0.0000 252.0000 12.77881336    16
CTC1_L_00409007-04
1 23655U 23255LW  26037.47805556  .00000000  00000+0  00000-0 0  9995
2 23655  45.0000  72.0000 0000000   0.0000 342.0000 12.77881336    17
CTC1_L_00409008-01
1 23656U 26721IQ  26037.47805556  .00000000  00000+0  00000-0 0  9997
2 23656  45.0000  84.0000 0000000   0.0000  84.0000 12.77881336    14
CTC1_L_00409008-02
1 23657U 22186VV  26037.47805556  .00000000  00000+0  00000-0 0  9999
2 23657  45.0000  84.0000 0000000   0.0000 174.0000 12.77881336    15
CTC1_L_00409008-03
1 23658U 25923NH  26037.47805556  .00000000  00000+0  00000-0 0  9992
2 23658  45.0000  84.0000 0000000   0.0000 264.0000 12.77881336    16
CTC1_L_00409008-04
1 23659U 24093KN  26037.47805556  .00000000  00000+0  00000-0 0  9990
2 23659  45.0000  84.0000 0000000   0.0000 354.0000 12.77881336    17
CTC1_L_00409009-01
1 23660U 23968QD  26037.47805556  .00000000  00000+0  00000-0 0  9992
2 23660  45.0000  96.0000 0000000   0.0000  96.0000 12.77881336    15
CTC1_L_00409009-02
1 23661U 24474RY  26037.47805556  .00000000  00000+0  00000-0 0  9996
2 23661  45.0000  96.0000 0000000   0.0000 186.0000 12.77881336    16
CTC1_L_00409009-03
1 23662U 22787UQ  26037.47805556  .00000000  00000+0  00000-0 0  9992
2 23662  45.0000  96.0000 0000000   0.0000 276.0000 12.77881336    17
CTC1_L_00409009-04
1 23663U 26564KA  26037.47805556  .00000000  00000+0  00000-0 0  9990
2 23663  45.0000  96.0000 0000000   0.0000   6.0000 12.77881336    19
CTC1_L_00409010-01
1 23664U 26003VO  26037.47805556  .00000000  00000+0  00000-0 0  9999
2 23664  45.0000 108.0000 0000000   0.0000 108.0000 12.77881336    17
CTC1_L_00409010-02
1 23665U 22504JL  26037.47805556  .00000000  00000+0  00000-0 0  9992
2 23665  45.0000 108.0000 0000000   0.0000 198.0000 12.77881336    17
CTC1_L_00409010-03
1 23666U 24928SM  26037.47805556  .00000000  00000+0  00000-0 0  9995
2 23666  45.0000 108.0000 0000000   0.0000 288.0000 12.77881336    18
CTC1_L_00409010-04
1 23667U 24091HE  26037.47805556  .00000000  00000+0  00000-0 0  9997
2 23667  45.0000 108.0000 0000000   0.0000  18.0000 12.77881336    10
CTC1_L_00409011-01
1 23668U 22548NE  26037.47805556  .00000000  00000+0  00000-0 0  9993
2 23668  45.0000 120.0000 0000000   0.0000 120.0000 12.77881336    19
CTC1_L_00409011-02
1 23669U 25956VT  26037.47805556  .00000000  00000+0  00000-0 0  9990
2 23669  45.0000 120.0000 0000000   0.0000 210.0000 12.77881336    10
CTC1_L_00409011-03
1 23670U 25649DC  26037.47805556  .00000000  00000+0  00000-0 0  9991
2 23670  45.0000 120.0000 0000000   0.0000 300.0000 12.77881336    12
CTC1_L_00409011-04
1 23671U 23487QE  26037.47805556  .00000000  00000+0  00000-0 0  9990
2 23671  45.0000 120.0000 0000000   0.0000  30.0000 12.77881336    13
CTC1_L_00409012-01
1 23672U 25901EK  26037.47805556  .00000000  00000+0  00000-0 0  9994
2 23672  45.0000 132.0000 0000000   0.0000 132.0000 12.77881336    10
CTC1_L_00409012-02
1 23673U 25698TS  26037.47805556  .00000000  00000+0  00000-0 0  9998
2 23673  45.0000 132.0000 0000000   0.0000 222.0000 12.77881336    11
CTC1_L_00409012-03
1 23674U 24018BN  26037.47805556  .00000000  00000+0  00000-0 0  9994
2 23674  45.0000 132.0000 0000000   0.0000 312.0000 12.77881336    12
CTC1_L_00409012-04
1 23675U 24800KL  26037.47805556  .00000000  00000+0  00000-0 0  9994
2 23675  45.0000 132.0000 0000000   0.0000  42.0000 12.77881336    13
CTC1_L_00409013-01
1 23676U 22582EA  26037.47805556  .00000000  00000+0  00000-0 0  9990
2 23676  45.0000 144.0000 0000000   0.0000 144.0000 12.77881336    10
CTC1_L_00409013-02
1 23677U 24493UM  26037.47805556  .00000000  00000+0  00000-0 0  9994
2 23677  45.0000 144.0000 0000000   0.0000 234.0000 12.77881336    11
CTC1_L_00409013-03
1 23678U 23887QO  26037.47805556  .00000000  00000+0  00000-0 0  9991
2 23678  45.0000 144.0000 0000000   0.0000 324.0000 12.77881336    12
CTC1_L_00409013-04
1 23679U 26719CU  26037.47805556  .00000000  00000+0  00000-0 0  9999
2 23679  45.0000 144.0000 0000000   0.0000  54.0000 12.77881336    13
CTC1_L_00409014-01
1 23680U 24556VW  26037.47805556  .00000000  00000+0  00000-0 0  9998
2 23680  45.0000 156.0000 0000000   0.0000 156.0000 12.77881336    11
CTC1_L_00409014-02
1 23681U 25289RM  26037.47805556  .00000000  00000+0  00000-0 0  9993
2 23681  45.0000 156.0000 0000000   0.0000 246.0000 12.77881336    12
CTC1_L_00409014-03
1 23682U 24888JZ  26037.47805556  .00000000  00000+0  00000-0 0  9998
2 23682  45.0000 156.0000 0000000   0.0000 336.0000 12.77881336    13
CTC1_L_00409014-04
1 23683U 24031PH  26037.47805556  .00000000  00000+0  00000-0 0  9999
2 23683  45.0000 156.0000 0000000   0.0000  66.0000 12.77881336    14
CTC1_L_00409015-01
1 23684U 22229BH  26037.47805556  .00000000  00000+0  00000-0 0  9997
2 23684  45.0000 168.0000 0000000   0.0000 168.0000 12.77881336    11
CTC1_L_00409015-02
1 23685U 25592IW  26037.47805556  .00000000  00000+0  00000-0 0  9994
2 23685  45.0000 168.0000 0000000   0.0000 258.0000 12.77881336    12
CTC1_L_00409015-03
1 23686U 26293TO  26037.47805556  .00000000  00000+0  00000-0 0  9994
2 23686  45.0000 168.0000 0000000   0.0000 348.0000 12.77881336    13
CTC1_L_00409015-04
1 23687U 25556EG  26037.47805556  .00000000  00000+0  00000-0 0  9996
2 23687  45.0000 168.0000 0000000   0.0000  78.0000 12.77881336    14
CTC1_L_00409016-01
1 23688U 25720II  26037.47805556  .00000000  00000+0  00000-0 0  9990
2 23688  45.0000 180.0000 0000000   0.0000 180.0000 12.77881336    13
CTC1_L_00409016-02
1 23689U 22077TG  26037.47805556  .00000000  00000+0  00000-0 0  9993
2 23689  45.0000 180.0000 0000000   0.0000 270.0000 12.77881336    14
